[{"OBJECT_NAME":"STARLINK-35910","OBJECT_ID":"2025-303X","EPOCH":"2026-03-09T01:27:09.464544","MEAN_MOTION":15.27604781,"ECCENTRICITY":1.845e-5,"INCLINATION":42.9961,"RA_OF_ASC_NODE":313.8596,"ARG_OF_PERICENTER":24.3355,"MEAN_ANOMALY":335.7505,"EPHEMERIS_TYPE":0,"CLASSIFICATION_TYPE":"U","NORAD_CAT_ID":67184,"ELEMENT_SET_NO":999,"REV_AT_EPOCH":1264,"BSTAR":0.0014300603,"MEAN_MOTION_DOT":0.0003933,"MEAN_MOTION_DDOT":0},{"OBJECT_NAME":"NOAA 17 DEB","OBJECT_ID":"2002-032AF","EPOCH":"2026-03-09T00:24:06.552000","MEAN_MOTION":15.25501717,"ECCENTRICITY":0.00030847,"INCLINATION":98.6472,"RA_OF_ASC_NODE":92.5947,"ARG_OF_PERICENTER":165.9893,"MEAN_ANOMALY":194.1428,"EPHEMERIS_TYPE":0,"CLASSIFICATION_TYPE":"U","NORAD_CAT_ID":48614,"ELEMENT_SET_NO":999,"REV_AT_EPOCH":26420,"BSTAR":0.01090047,"MEAN_MOTION_DOT":0.00286783,"MEAN_MOTION_DDOT":0}]
